GLOBALSTAR M067         
1 32263U 07048A   25219.39935017 -.00000029  00000+0  50831-3 0  9992
2 32263  51.9706 246.0828 0001145 100.7309 272.8867 12.40675475815844
GLOBALSTAR M070         
1 32264U 07048B   25219.59212123 -.00000089  00000+0  80492-4 0  9994
2 32264  51.9775 331.9044 0000627 121.5532 252.1030 12.62320599820160
GLOBALSTAR M066         
1 32265U 07048C   25219.43741887 -.00000042  00000+0  44132-3 0  9991
2 32265  51.9550 238.5845 0004641  86.2949  60.7077 12.30261241821609
GLOBALSTAR M068         
1 32266U 07048D   25219.54284512 -.00000123  00000+0 -10578-3 0  9999
2 32266  51.9877 145.7071 0000553 270.8424 260.4877 12.62826388824041
GLOBALSTAR M079         
1 37188U 10054A   25219.63597274 -.00000096  00000+0  41787-4 0  9995
2 37188  52.0064 343.1690 0000938  89.5186 283.9153 12.62265684682952
GLOBALSTAR M074         
1 37189U 10054B   25219.51866124 -.00000102  00000+0  90807-5 0  9992
2 37189  52.0041 342.8426 0000888 110.1671 328.3616 12.62266775683541
GLOBALSTAR M076         
1 37190U 10054C   25219.54543017 -.00000099  00000+0  25588-4 0  9998
2 37190  52.0054 342.9354 0001009 101.2027 339.7039 12.62264328683266
GLOBALSTAR M077         
1 37191U 10054D   25219.51672503 -.00000067  00000+0  20322-3 0  9994
2 37191  52.0083 299.8924 0000609 116.5173 256.6275 12.62322608683634
